NORAD_CAT_ID,OBJECT_NAME,OBJECT_TYPE,EPOCH,MEAN_MOTION,ECCENTRICITY,INCLINATION,RA_OF_ASC_NODE,ARG_OF_PERICENTER,MEAN_ANOMALY,BSTAR,MEAN_MOTION_DOT,MEAN_MOTION_DDOT,TLE_LINE0,TLE_LINE1,TLE_LINE2,SEMIMAJOR_AXIS,PERIOD,APOGEE,PERIGEE,DECAYED
52623.0,STARLINK-3986,PAYLOAD,2023-09-13 13:53:40,15.08850982,0.0001409,53.2183,25.7865,85.0541,275.0612,0.00024996,3.694e-05,0.0,0 STARLINK-3986,1 52623U 22052AB  23256.57893591  .00003694  00000-0  24996-3 0  9999,2 52623  53.2183  25.7865 0001409  85.0541 275.0612 15.08850982 73898,6917.847,95.437,540.687,538.737,0.0
52623.0,STARLINK-3986,PAYLOAD,2023-09-13 15:29:03,15.08854309,0.0001426,53.2186,25.4893,82.4241,277.6913,0.00024279,3.58e-05,0.0,0 STARLINK-3986,1 52623U 22052AB  23256.64517455  .00003580  00000-0  24279-3 0  9997,2 52623  53.2186  25.4893 0001426  82.4241 277.6913 15.08854309 73907,6917.837,95.437,540.688,538.715,0.0
52623.0,STARLINK-3986,PAYLOAD,2023-09-14 07:22:55,15.08830867,0.0001556,53.218,22.5165,74.1869,285.9295,-9.1882e-05,-1.75e-05,0.0,0 STARLINK-3986,1 52623U 22052AB  23257.30758673 -.00001750  00000-0 -91882-4 0  9994,2 52623  53.2180  22.5165 0001556  74.1869 285.9295 15.08830867 74380,6917.908,95.438,540.85,538.697,0.0
52623.0,STARLINK-3986,PAYLOAD,2023-09-14 13:44:28,15.08827651,0.0001325,53.2186,21.3256,100.1686,259.9456,-0.00013682,-2.464e-05,0.0,0 STARLINK-3986,1 52623U 22052AB  23257.57254878 -.00002464  00000-0 -13682-3 0  9995,2 52623  53.2186  21.3256 0001325 100.1686 259.9456 15.08827651 74045,6917.918,95.438,540.7,538.867,0.0
52623.0,STARLINK-3986,PAYLOAD,2023-09-14 15:19:51,15.08827773,0.0001391,53.2191,21.0276,108.5584,251.5559,-0.00015681,-2.782e-05,0.0,0 STARLINK-3986,1 52623U 22052AB  23257.63878814 -.00002782  00000-0 -15681-3 0  9998,2 52623  53.2191  21.0276 0001391 108.5584 251.5559 15.08827773 74050,6917.918,95.438,540.745,538.82,0.0
52623.0,STARLINK-3986,PAYLOAD,2023-09-15 08:49:05,15.08839471,0.0001217,53.2192,17.7575,100.497,259.6159,0.00018366,2.636e-05,0.0,0 STARLINK-3986,1 52623U 22052AB  23258.36742956  .00002636  00000-0  18366-3 0  9995,2 52623  53.2192  17.7575 0001217 100.4970 259.6159 15.08839471 74549,6917.882,95.438,540.589,538.905,0.0
52623.0,STARLINK-3986,PAYLOAD,2023-09-15 13:35:15,15.08848253,0.0001286,53.219,16.8659,104.2788,255.8347,0.00052304,8.048e-05,0.0,0 STARLINK-3986,1 52623U 22052AB  23258.56614793  .00008048  00000-0  52304-3 0  9997,2 52623  53.2190  16.8659 0001286 104.2788 255.8347 15.08848253 74191,6917.855,95.437,540.61,538.831,0.0
52623.0,STARLINK-3986,PAYLOAD,2023-09-16 13:26:02,15.08840215,0.0001306,53.2189,12.4061,89.1031,271.0111,0.00011298,1.511e-05,0.0,0 STARLINK-3986,1 52623U 22052AB  23259.55975045  .00001511  00000-0  11298-3 0  9992,2 52623  53.2189  12.4061 0001306  89.1031 271.0111 15.08840215 74349,6917.88,95.438,540.648,538.841,0.0
52623.0,STARLINK-3986,PAYLOAD,2023-09-16 16:36:48,15.08848611,0.0001323,53.2194,11.8118,87.2297,272.8847,0.00031573,4.742e-05,0.0,0 STARLINK-3986,1 52623U 22052AB  23259.69222795  .00004742  00000-0  31573-3 0  9991,2 52623  53.2194  11.8118 0001323  87.2297 272.8847 15.08848611 74740,6917.854,95.437,540.634,538.804,0.0
52623.0,STARLINK-3986,PAYLOAD,2023-09-17 00:33:44,15.08842043,0.0001381,53.2186,10.325,90.274,269.841,0.00036678,5.554e-05,0.0,0 STARLINK-3986,1 52623U 22052AB  23260.02343065  .00005554  00000-0  36678-3 0  9997,2 52623  53.2186  10.3250 0001381  90.2740 269.8410 15.08842043 74793,6917.874,95.437,540.695,538.784,0.0
52623.0,STARLINK-3986,PAYLOAD,2023-09-17 13:16:49,15.08850012,0.0001387,53.2193,7.9464,95.5578,264.5572,0.00036222,5.483e-05,0.0,0 STARLINK-3986,1 52623U 22052AB  23260.55334925  .00005483  00000-0  36222-3 0  9996,2 52623  53.2193   7.9464 0001387  95.5578 264.5572 15.08850012 74496,6917.85,95.437,540.674,538.755,0.0
52623.0,STARLINK-3986,PAYLOAD,2023-09-18 00:24:31,15.08848319,0.0001337,53.2187,5.865,86.8349,273.2796,0.0004564,6.985e-05,0.0,0 STARLINK-3986,1 52623U 22052AB  23261.01703030  .00006985  00000-0  45640-3 0  9997,2 52623  53.2187   5.8650 0001337  86.8349 273.2796 15.08848319 74949,6917.855,95.437,540.645,538.795,0.0
52623.0,STARLINK-3986,PAYLOAD,2023-09-18 13:07:36,15.08848896,0.0001584,53.2187,3.4861,87.4591,272.6583,0.0003292,4.956e-05,0.0,0 STARLINK-3986,1 52623U 22052AB  23261.54694986  .00004956  00000-0  32920-3 0  9997,2 52623  53.2187   3.4861 0001584  87.4591 272.6583 15.08848896 74641,6917.853,95.437,540.814,538.622,0.0
52623.0,STARLINK-3986,PAYLOAD,2023-09-18 14:42:59,15.08853867,0.000143,53.2182,3.1885,87.6863,272.4292,0.00045282,6.929e-05,0.0,0 STARLINK-3986,1 52623U 22052AB  23261.61318800  .00006929  00000-0  45282-3 0  9990,2 52623  53.2182   3.1885 0001430  87.6863 272.4292 15.08853867 74653,6917.838,95.437,540.692,538.714,0.0
52623.0,STARLINK-3986,PAYLOAD,2023-09-19 00:15:18,15.08854417,0.0001552,53.2178,1.4057,84.5786,275.5383,0.00046856,7.18e-05,0.0,0 STARLINK-3986,1 52623U 22052AB  23262.01062710  .00007180  00000-0  46856-3 0  9999,2 52623  53.2178   1.4057 0001552  84.5786 275.5383 15.08854417 75091,6917.836,95.437,540.775,538.628,0.0
52623.0,STARLINK-3986,PAYLOAD,2023-09-20 09:38:24,15.08831087,0.0001533,53.2183,355.1608,80.4731,279.6435,-7.106e-05,-1.418e-05,0.0,0 STARLINK-3986,1 52623U 22052AB  23263.40167345 -.00001418  00000-0 -71060-4 0  9999,2 52623  53.2183 355.1608 0001533  80.4731 279.6435 15.08831087 75307,6917.908,95.438,540.833,538.712,0.0
52623.0,STARLINK-3986,PAYLOAD,2023-09-20 12:49:11,15.08821558,0.00012,53.2181,354.5623,90.5201,269.5929,-0.00018342,-3.204e-05,0.0,0 STARLINK-3986,1 52623U 22052AB  23263.53415571 -.00003204  00000-0 -18342-3 0  9998,2 52623  53.2181 354.5623 0001200  90.5201 269.5929 15.08821558 74947,6917.937,95.439,540.632,538.972,0.0
52623.0,STARLINK-3986,PAYLOAD,2023-09-21 09:29:12,15.08839162,0.0001309,53.2196,350.7013,68.8726,291.2406,0.00038604,5.861e-05,0.0,0 STARLINK-3986,1 52623U 22052AB  23264.39527859  .00005861  00000-0  38604-3 0  9998,2 52623  53.2196 350.7013 0001309  68.8726 291.2406 15.08839162 75453,6917.883,95.438,540.654,538.842,0.0
52623.0,STARLINK-3986,PAYLOAD,2023-09-21 12:39:58,15.08851631,0.000147,53.2183,350.1047,67.9273,292.1875,0.0010143,0.00015897,0.0,0 STARLINK-3986,1 52623U 22052AB  23264.52775851  .00015897  00000-0  10143-2 0  9997,2 52623  53.2183 350.1047 0001470  67.9273 292.1875 15.08851631 75091,6917.845,95.437,540.727,538.693,0.0
52623.0,STARLINK-3986,PAYLOAD,2023-09-21 22:12:17,15.08852156,0.0001676,53.2193,348.3178,66.638,293.4788,0.00047753,7.323e-05,0.0,0 STARLINK-3986,1 52623U 22052AB  23264.92519734  .00007323  00000-0  47753-3 0  9990,2 52623  53.2193 348.3178 0001676  66.6380 293.4788 15.08852156 75538,6917.843,95.437,540.868,538.549,0.0
52623.0,STARLINK-3986,PAYLOAD,2023-09-22 10:55:21,15.08850075,0.0001649,53.2199,345.9432,88.8469,271.2712,0.00034198,5.16e-05,0.0,0 STARLINK-3986,1 52623U 22052AB  23265.45511558  .00005160  00000-0  34198-3 0  9991,2 52623  53.2199 345.9432 0001649  88.8469 271.2712 15.08850075 75612,6917.85,95.437,540.855,538.574,0.0
52623.0,STARLINK-3986,PAYLOAD,2023-09-22 12:30:45,15.0885203,0.0001596,53.2198,345.6462,83.513,276.6044,0.00035628,5.389e-05,0.0,0 STARLINK-3986,1 52623U 22052AB  23265.52135540  .00005389  00000-0  35628-3 0  9994,2 52623  53.2198 345.6462 0001596  83.5130 276.6044 15.08852030 75248,6917.844,95.437,540.813,538.605,0.0
52623.0,STARLINK-3986,PAYLOAD,2023-09-23 10:46:08,15.08848961,0.0001564,53.2191,341.4822,88.3629,271.7543,7.02e-05,8.3e-06,0.0,0 STARLINK-3986,1 52623U 22052AB  23266.44871138  .00000830  00000-0  70200-4 0  9998,2 52623  53.2191 341.4822 0001564  88.3629 271.7543 15.08848961 75761,6917.853,95.437,540.8,538.636,0.0
52623.0,STARLINK-3986,PAYLOAD,2023-09-24 10:36:55,15.0884201,0.0001481,53.2195,337.0229,82.9491,277.1669,-3.3512e-06,-3.41e-06,0.0,0 STARLINK-3986,1 52623U 22052AB  23267.44231392 -.00000341  00000-0 -33512-5 0  9996,2 52623  53.2195 337.0229 0001481  82.9491 277.1669 15.08842010 75917,6917.874,95.437,540.764,538.715,0.0
52623.0,STARLINK-3986,PAYLOAD,2023-09-24 13:47:41,15.08848387,0.0001622,53.2189,336.4272,85.5801,274.5376,0.00011232,1.5e-05,0.0,0 STARLINK-3986,1 52623U 22052AB  23267.57479124  .00001500  00000-0  11232-3 0  9996,2 52623  53.2189 336.4272 0001622  85.5801 274.5376 15.08848387 75551,6917.855,95.437,540.842,538.598,0.0
52623.0,STARLINK-3986,PAYLOAD,2023-09-25 08:52:20,15.08841608,0.0001618,53.2181,332.8605,89.2591,270.8587,0.00012115,1.641e-05,0.0,0 STARLINK-3986,1 52623U 22052AB  23268.36967637  .00001641  00000-0  12115-3 0  9992,2 52623  53.2181 332.8605 0001618  89.2591 270.8587 15.08841608 76053,6917.875,95.437,540.86,538.621,0.0
52623.0,STARLINK-3986,PAYLOAD,2023-09-25 12:03:06,15.08847061,0.0001666,53.2183,332.2652,80.9576,279.1604,0.00020414,2.963e-05,0.0,0 STARLINK-3986,1 52623U 22052AB  23268.50215471  .00002963  00000-0  20414-3 0  9999,2 52623  53.2183 332.2652 0001666  80.9576 279.1604 15.08847061 75695,6917.859,95.437,540.876,538.571,0.0
52623.0,STARLINK-3986,PAYLOAD,2023-09-26 10:18:30,15.088408,0.000165,53.2176,328.1002,85.5486,274.5695,0.00012394,1.685e-05,0.0,0 STARLINK-3986,1 52623U 22052AB  23269.42951834  .00001685  00000-0  12394-3 0  9999,2 52623  53.2176 328.1002 0001650  85.5486 274.5695 15.08840800 76216,6917.878,95.438,540.884,538.601,0.0
52623.0,STARLINK-3986,PAYLOAD,2023-09-27 10:09:17,15.08846577,0.0001634,53.2176,323.6398,95.294,264.8239,0.00020502,2.977e-05,0.0,0 STARLINK-3986,1 52623U 22052AB  23270.42311674  .00002977  00000-0  20502-3 0  9998,2 52623  53.2176 323.6398 0001634  95.2940 264.8239 15.08846577 75985,6917.86,95.437,540.856,538.595,0.0
52623.0,STARLINK-3986,PAYLOAD,2023-09-27 22:52:22,15.08839754,0.0001676,53.2171,321.2638,90.3892,269.7292,0.00010073,1.315e-05,0.0,0 STARLINK-3986,1 52623U 22052AB  23270.95304008  .00001315  00000-0  10073-3 0  9996,2 52623  53.2171 321.2638 0001676  90.3892 269.7292 15.08839754 76443,6917.881,95.438,540.906,538.587,0.0
